0 LEASAT 4 PKM
1 16001U 85076F   13283.11580130  .00003001  00000-0  13068-2 0   412
2 16001 027.3864 261.9610 5087438 347.1113 026.6418 05.39222323539308
0 LEASAT 4 PKM
1 16001U 85076F   13287.20444583  .00003408  00000-0  14700-2 0   434
2 16001 027.3807 257.4568 5087752 354.5684 043.6607 05.39247865539522
0 LEASAT 4 PKM
1 16001U 85076F   13290.16796539  .00003607  00000-0  15849-2 0   441
2 16001 027.3768 254.1899 5087976 359.9739 036.8121 05.39273415539689
0 LEASAT 4 PKM
1 16001U 85076F   13292.21262765  .00003706  00000-0  16350-2 0   457
2 16001 027.3741 251.9355 5088170 003.7037 046.3219 05.39288382539799
0 LEASAT 4 PKM
1 16001U 85076F   13294.05368600  .00003575  00000-0  15700-2 0   469
2 16001 027.3720 249.9052 5088323 007.0632 020.6435 05.39307285539895
0 LEASAT 4 PKM
1 16001U 85076F   13295.41462457  .00003788  00000-0  16479-2 0   476
2 16001 027.3701 248.4039 5088404 009.5469 142.9112 05.39319385539971
